{
"type": "FeatureCollection",
"name": "example_plots_s2",
"crs": { "type": "name", "properties": { "name": "urn:ogc:def:crs:OGC:1.3:CRS84" } },
"features": [
{ "type": "Feature", "properties": { "plot_index": 292, "POINT_X": -113.95, "POINT_Y": 37.75, "n": 54.0, "AGB_T_HA": 0.050408224057870425, "varTot": 13.5956318581575, "AVG_YEAR": 2020, "utm_epsg": 32612, "s2_year": 2020, "s2_tiles": "11SQB(100%), 12STG(100%)" }, "geometry": { "type": "Polygon", "coordinates": [ [ [ -113.888638889333805, 37.690953500995114 ], [ -113.888638889333805, 37.809046499004886 ], [ -114.011361110666201, 37.809046499004886 ], [ -114.011361110666201, 37.690953500995114 ], [ -113.888638889333805, 37.690953500995114 ] ] ] } },
{ "type": "Feature", "properties": { "plot_index": 304, "POINT_X": -108.55, "POINT_Y": 37.95, "n": 37.0, "AGB_T_HA": 3.7922248636486482, "varTot": 20.332122504642562, "AVG_YEAR": 2020, "utm_epsg": 32612, "s2_year": 2020, "s2_tiles": "12SYH(100%), 12SYG(26%), 12SXH(0%)" }, "geometry": { "type": "Polygon", "coordinates": [ [ [ -108.488608030271322, 37.890953500995117 ], [ -108.488608030271322, 38.009046499004889 ], [ -108.6113919697287, 38.009046499004889 ], [ -108.6113919697287, 37.890953500995117 ], [ -108.488608030271322, 37.890953500995117 ] ] ] } },
{ "type": "Feature", "properties": { "plot_index": 293, "POINT_X": -108.55, "POINT_Y": 37.75, "n": 100.0, "AGB_T_HA": 24.916101629314376, "varTot": 3.0033998899634007, "AVG_YEAR": 2020, "utm_epsg": 32612, "s2_year": 2020, "s2_tiles": "12SYG(100%)" }, "geometry": { "type": "Polygon", "coordinates": [ [ [ -108.488638889333814, 37.690953500995114 ], [ -108.488638889333814, 37.809046499004886 ], [ -108.611361110666209, 37.809046499004886 ], [ -108.611361110666209, 37.690953500995114 ], [ -108.488638889333814, 37.690953500995114 ] ] ] } },
{ "type": "Feature", "properties": { "plot_index": 26, "POINT_X": 11.55, "POINT_Y": 4.15, "n": 674.0, "AGB_T_HA": 88.170245454666485, "varTot": 1.552628505072803, "AVG_YEAR": 2017, "utm_epsg": 32632, "s2_year": 2018, "s2_tiles": "32NQK(100%)" }, "geometry": { "type": "Polygon", "coordinates": [ [ [ 11.609006727300166, 4.090953500995115 ], [ 11.609006727300166, 4.209046499004885 ], [ 11.490993272699836, 4.209046499004885 ], [ 11.490993272699836, 4.090953500995115 ], [ 11.609006727300166, 4.090953500995115 ] ] ] } },
{ "type": "Feature", "properties": { "plot_index": 290, "POINT_X": -80.45, "POINT_Y": 37.45, "n": 192.0, "AGB_T_HA": 163.65799510263133, "varTot": 2.9517917412600707, "AVG_YEAR": 2018, "utm_epsg": 32617, "s2_year": 2018, "s2_tiles": "17SNB(100%)" }, "geometry": { "type": "Polygon", "coordinates": [ [ [ -80.388684608140451, 37.390953500995117 ], [ -80.388684608140451, 37.509046499004889 ], [ -80.511315391859554, 37.509046499004889 ], [ -80.511315391859554, 37.390953500995117 ], [ -80.388684608140451, 37.390953500995117 ] ] ] } },
{ "type": "Feature", "properties": { "plot_index": 11, "POINT_X": 12.85, "POINT_Y": 3.15, "n": 253.0, "AGB_T_HA": 280.94016731542496, "varTot": 5.493603370462167, "AVG_YEAR": 2017, "utm_epsg": 32633, "s2_year": 2018, "s2_tiles": "33NTD(100%)" }, "geometry": { "type": "Polygon", "coordinates": [ [ [ 12.908996704894273, 3.090953500995115 ], [ 12.908996704894273, 3.209046499004885 ], [ 12.79100329510573, 3.209046499004885 ], [ 12.79100329510573, 3.090953500995115 ], [ 12.908996704894273, 3.090953500995115 ] ] ] } }
]
}
